COMMENT,ORIGINATOR,NORAD_CAT_ID,OBJECT_NAME,OBJECT_TYPE,CLASSIFICATION_TYPE,INTLDES,EPOCH,EPOCH_MICROSECONDS,MEAN_MOTION,ECCENTRICITY,INCLINATION,RA_OF_ASC_NODE,ARG_OF_PERICENTER,MEAN_ANOMALY,EPHEMERIS_TYPE,ELEMENT_SET_NO,REV_AT_EPOCH,BSTAR,MEAN_MOTION_DOT,MEAN_MOTION_DDOT,FILE,TLE_LINE0,TLE_LINE1,TLE_LINE2,OBJECT_ID,OBJECT_NUMBER,SEMIMAJOR_AXIS,PERIOD,APOGEE,PERIGEE,DECAYED
"GENERATED VIA SPACETRACK.ORG API","18 SPCS","55096","SPACEBEE-161","PAYLOAD","U","23001CR","2023-05-28 02:41:19","341024","15.19312712","0.0016408","97.4777","208.3973","76.3875","283.9185","0","999","2205","0.00059228","0.00012492","0","3919252","0 SPACEBEE-161","1 55096U 23001CR  23148.11202941  .00012492  00000-0  59228-3 0  9996","2 55096  97.4777 208.3973 0016408  76.3875 283.9185 15.19312712 22052","2023-001CR","55096","6886.054","94.780","519.217","496.620","0"
"GENERATED VIA SPACETRACK.ORG API","18 SPCS","55096","SPACEBEE-161","PAYLOAD","U","23001CR","2023-05-28 16:54:52","617888","15.19333003","0.0016401","97.478","208.9844","74.519","285.7855","0","999","2214","0.00072839","0.00015394","0","3919493","0 SPACEBEE-161","1 55096U 23001CR  23148.70477567  .00015394  00000-0  72839-3 0  9996","2 55096  97.4780 208.9844 0016401  74.5190 285.7855 15.19333003 22142","2023-001CR","55096","6885.992","94.778","519.151","496.563","0"
"GENERATED VIA SPACETRACK.ORG API","18 SPCS","55096","SPACEBEE-161","PAYLOAD","U","23001CR","2023-05-28 21:39:23","579136","15.19338209","0.0016385","97.4781","209.1799","74.0192","286.2846","0","999","2217","0.00071316","0.00015072","0","3919546","0 SPACEBEE-161","1 55096U 23001CR  23148.90235624  .00015072  00000-0  71316-3 0  9996","2 55096  97.4781 209.1799 0016385  74.0192 286.2846 15.19338209 22175","2023-001CR","55096","6885.976","94.778","519.124","496.559","0"
"GENERATED VIA SPACETRACK.ORG API","18 SPCS","55096","SPACEBEE-161","PAYLOAD","U","23001CR","2023-05-29 03:58:44","749344","15.19345553","0.0016371","97.4781","209.4408","73.2061","287.0968","0","999","2221","0.00066771","0.00014108","0","3920065","0 SPACEBEE-161","1 55096U 23001CR  23149.16579571  .00014108  00000-0  66771-3 0  9995","2 55096  97.4781 209.4408 0016371  73.2061 287.0968 15.19345553 22215","2023-001CR","55096","6885.954","94.778","519.092","496.546","0"
"GENERATED VIA SPACETRACK.ORG API","18 SPCS","55096","SPACEBEE-161","PAYLOAD","U","23001CR","2023-05-29 21:21:57","413376","15.19365804","0.0016329","97.478","210.1581","70.9686","289.3316","0","999","2232","0.00064154","0.00013559","0","3920354","0 SPACEBEE-161","1 55096U 23001CR  23149.89024784  .00013559  00000-0  64154-3 0  9998","2 55096  97.4780 210.1581 0016329  70.9686 289.3316 15.19365804 22320","2023-001CR","55096","6885.893","94.776","519.002","496.514","0"
"GENERATED VIA SPACETRACK.ORG API","18 SPCS","55096","SPACEBEE-161","PAYLOAD","U","23001CR","2023-05-29 21:21:57","413376","15.19365804","0.0016329","97.478","210.1581","70.9686","289.3316","0","999","2232","0.00064154","0.00013559","0","3920521","0 SPACEBEE-161","1 55096U 23001CR  23149.89024784  .00013559  00000-0  64154-3 0  9998","2 55096  97.4780 210.1581 0016329  70.9686 289.3316 15.19365804 22320","2023-001CR","55096","6885.893","94.776","519.002","496.514","0"
"GENERATED VIA SPACETRACK.ORG API","18 SPCS","55096","SPACEBEE-161","PAYLOAD","U","23001CR","2023-05-30 03:41:18","173184","15.19372704","0.0016325","97.478","210.4189","70.1182","290.181","0","999","2236","0.00060082","0.00012695","0","3920920","0 SPACEBEE-161","1 55096U 23001CR  23150.15368256  .00012695  00000-0  60082-3 0  9990","2 55096  97.4780 210.4189 0016325  70.1182 290.1810 15.19372704 22366","2023-001CR","55096","6885.872","94.776","518.978","496.496","0"
"GENERATED VIA SPACETRACK.ORG API","18 SPCS","55096","SPACEBEE-161","PAYLOAD","U","23001CR","2023-05-30 16:19:59","376576","15.19387671","0.0016275","97.4778","210.9406","68.4106","291.886","0","999","2244","0.00063678","0.00013466","0","3921192","0 SPACEBEE-161","1 55096U 23001CR  23150.68054834  .00013466  00000-0  63678-3 0  9993","2 55096  97.4778 210.9406 0016275  68.4106 291.8860 15.19387671 22441","2023-001CR","55096","6885.827","94.775","518.899","496.485","0"
"GENERATED VIA SPACETRACK.ORG API","18 SPCS","55096","SPACEBEE-161","PAYLOAD","U","23001CR","2023-05-31 03:23:50","21088","15.19402251","0.0016199","97.4779","211.3971","66.8855","293.4085","0","999","2251","0.00068083","0.0001441","0","3921690","0 SPACEBEE-161","1 55096U 23001CR  23151.14155117  .00014410  00000-0  68083-3 0  9996","2 55096  97.4779 211.3971 0016199  66.8855 293.4085 15.19402251 22519","2023-001CR","55096","6885.783","94.774","518.802","496.494","0"
"GENERATED VIA SPACETRACK.ORG API","18 SPCS","55096","SPACEBEE-161","PAYLOAD","U","23001CR","2023-05-31 03:23:50","21088","15.19402251","0.0016199","97.4779","211.3971","66.8855","293.4085","0","999","2251","0.00068083","0.0001441","0","3921767","0 SPACEBEE-161","1 55096U 23001CR  23151.14155117  .00014410  00000-0  68083-3 0  9996","2 55096  97.4779 211.3971 0016199  66.8855 293.4085 15.19402251 22519","2023-001CR","55096","6885.783","94.774","518.802","496.494","0"
"GENERATED VIA SPACETRACK.ORG API","18 SPCS","55096","SPACEBEE-161","PAYLOAD","U","23001CR","2023-05-31 17:37:20","306784","15.19421889","0.0016097","97.4779","211.984","64.8966","295.3937","0","999","2260","0.00076225","0.00016154","0","3922037","0 SPACEBEE-161","1 55096U 23001CR  23151.73426281  .00016154  00000-0  76225-3 0  9998","2 55096  97.4779 211.9840 0016097  64.8966 295.3937 15.19421889 22603","2023-001CR","55096","6885.724","94.773","518.673","496.505","0"
"GENERATED VIA SPACETRACK.ORG API","18 SPCS","55096","SPACEBEE-161","PAYLOAD","U","23001CR","2023-06-01 09:25:39","852768","15.1944488","0.0016049","97.4779","212.6362","62.5692","297.7173","0","999","2270","0.00083881","0.00017798","0","3922365","0 SPACEBEE-161","1 55096U 23001CR  23152.39282237  .00017798  00000-0  83881-3 0  9993","2 55096  97.4779 212.6362 0016049  62.5692 297.7173 15.19444880 22703","2023-001CR","55096","6885.654","94.771","518.570","496.468","0"
"GENERATED VIA SPACETRACK.ORG API","18 SPCS","55096","SPACEBEE-161","PAYLOAD","U","23001CR","2023-06-01 09:25:39","852768","15.1944488","0.0016049","97.4779","212.6362","62.5692","297.7173","0","999","2270","0.00083881","0.00017798","0","3922648","0 SPACEBEE-161","1 55096U 23001CR  23152.39282237  .00017798  00000-0  83881-3 0  9993","2 55096  97.4779 212.6362 0016049  62.5692 297.7173 15.19444880 22703","2023-001CR","55096","6885.654","94.771","518.570","496.468","0"
"GENERATED VIA SPACETRACK.ORG API","18 SPCS","55096","SPACEBEE-161","PAYLOAD","U","23001CR","2023-06-02 02:48:48","327264","15.19470598","0.0015986","97.478","213.3537","60.1751","300.107","0","999","2281","0.00083292","0.00017685","0","3923342","0 SPACEBEE-161","1 55096U 23001CR  23153.11722601  .00017685  00000-0  83292-3 0  9999","2 55096  97.4780 213.3537 0015986  60.1751 300.1070 15.19470598 22818","2023-001CR","55096","6885.576","94.770","518.449","496.434","0"
"GENERATED VIA SPACETRACK.ORG API","18 SPCS","55096","SPACEBEE-161","PAYLOAD","U","23001CR","2023-06-02 17:02:16","328544","15.19489466","0.0015953","97.478","213.9409","58.2042","302.0744","0","999","2290","0.00076983","0.00016346","0","3923489","0 SPACEBEE-161","1 55096U 23001CR  23153.70991121  .00016346  00000-0  76983-3 0  9991","2 55096  97.4780 213.9409 0015953  58.2042 302.0744 15.19489466 22900","2023-001CR","55096","6885.519","94.769","518.369","496.400","0"
"GENERATED VIA SPACETRACK.ORG API","18 SPCS","55096","SPACEBEE-161","PAYLOAD","U","23001CR","2023-06-02 17:02:16","328544","15.19489466","0.0015953","97.478","213.9409","58.2042","302.0744","0","999","2290","0.00076983","0.00016346","0","3923570","0 SPACEBEE-161","1 55096U 23001CR  23153.70991121  .00016346  00000-0  76983-3 0  9991","2 55096  97.4780 213.9409 0015953  58.2042 302.0744 15.19489466 22900","2023-001CR","55096","6885.519","94.769","518.369","496.400","0"
"GENERATED VIA SPACETRACK.ORG API","18 SPCS","55096","SPACEBEE-161","PAYLOAD","U","23001CR","2023-06-03 02:31:14","655936","15.19501972","0.0015938","97.478","214.3323","56.9833","303.2931","0","999","2296","0.00076411","0.0001623","0","3924076","0 SPACEBEE-161","1 55096U 23001CR  23154.10503074  .00016230  00000-0  76411-3 0  9990","2 55096  97.4780 214.3323 0015938  56.9833 303.2931 15.19501972 22960","2023-001CR","55096","6885.482","94.768","518.321","496.373","0"
"GENERATED VIA SPACETRACK.ORG API","18 SPCS","55096","SPACEBEE-161","PAYLOAD","U","23001CR","2023-06-03 15:09:52","17984","15.19515175","0.0015916","97.478","214.8541","55.2626","305.0105","0","999","2304","0.00065999","0.0001401","0","3924324","0 SPACEBEE-161","1 55096U 23001CR  23154.63185206  .00014010  00000-0  65999-3 0  9994","2 55096  97.4780 214.8541 0015916  55.2626 305.0105 15.19515175 23048","2023-001CR","55096","6885.442","94.767","518.266","496.348","0"
"GENERATED VIA SPACETRACK.ORG API","18 SPCS","55096","SPACEBEE-161","PAYLOAD","U","23001CR","2023-06-04 02:13:39","343872","15.19529582","0.0015891","97.478","215.3108","53.7387","306.5313","0","999","2311","0.00070258","0.00014926","0","3924568","0 SPACEBEE-161","1 55096U 23001CR  23155.09281648  .00014926  00000-0  70258-3 0  9992","2 55096  97.4780 215.3108 0015891  53.7387 306.5313 15.19529582 23114","2023-001CR","55096","6885.398","94.766","518.205","496.322","0"
"GENERATED VIA SPACETRACK.ORG API","18 SPCS","55096","SPACEBEE-161","PAYLOAD","U","23001CR","2023-06-04 03:48:28","922976","15.19530785","0.0015889","97.4779","215.376","53.5319","306.7377","0","999","2312","0.00066193","0.00014058","0","3924842","0 SPACEBEE-161","1 55096U 23001CR  23155.15866809  .00014058  00000-0  66193-3 0  9996","2 55096  97.4779 215.3760 0015889  53.5319 306.7377 15.19530785 23126","2023-001CR","55096","6885.395","94.766","518.200","496.319","0"
